NORAD_CAT_ID,OBJECT_NAME,OBJECT_TYPE,EPOCH,MEAN_MOTION,ECCENTRICITY,INCLINATION,RA_OF_ASC_NODE,ARG_OF_PERICENTER,MEAN_ANOMALY,BSTAR,MEAN_MOTION_DOT,MEAN_MOTION_DDOT,TLE_LINE0,TLE_LINE1,TLE_LINE2,SEMIMAJOR_AXIS,PERIOD,APOGEE,PERIGEE,DECAYED
52610.0,STARLINK-3998,PAYLOAD,2023-10-15 07:55:54,15.08806797,0.000135,53.2154,258.249,97.8353,262.2793,-0.00010924,-2.024e-05,0.0,0 STARLINK-3998,1 52610U 22052N   23288.33049705 -.00002024  00000-0 -10924-3 0  9998,2 52610  53.2154 258.2490 0001350  97.8353 262.2793 15.08806797 78850,6917.982,95.44,540.781,538.913,0.0
52610.0,STARLINK-3998,PAYLOAD,2023-10-16 03:00:32,15.08875289,0.0001215,53.2165,254.6832,99.5408,260.5722,0.0025704,0.00040897,0.0,0 STARLINK-3998,1 52610U 22052N   23289.12537672  .00040897  00000-0  25704-2 0  9990,2 52610  53.2165 254.6832 0001215  99.5408 260.5722 15.08875289 78970,6917.773,95.435,540.478,538.797,0.0
52610.0,STARLINK-3998,PAYLOAD,2023-10-16 04:35:55,15.08883365,0.000127,53.2165,254.3849,103.2218,256.8916,0.0027168,0.00043267,0.0,0 STARLINK-3998,1 52610U 22052N   23289.19161456  .00043267  00000-0  27168-2 0  9990,2 52610  53.2165 254.3849 0001270 103.2218 256.8916 15.08883365 78616,6917.748,95.435,540.491,538.734,0.0
52610.0,STARLINK-3998,PAYLOAD,2023-10-16 22:05:09,15.08884414,0.0001047,53.2165,251.1148,99.3614,260.7497,0.0023624,0.00037556,0.0,0 STARLINK-3998,1 52610U 22052N   23289.92024889  .00037556  00000-0  23624-2 0  9996,2 52610  53.2165 251.1148 0001047  99.3614 260.7497 15.08884414 78726,6917.745,95.435,540.334,538.885,0.0
52610.0,STARLINK-3998,PAYLOAD,2023-10-17 20:20:33,15.08859452,0.0002138,53.2167,246.9497,91.67,268.4537,0.0022187,0.00035219,0.0,0 STARLINK-3998,1 52610U 22052N   23290.84760798  .00035219  00000-0  22187-2 0  9992,2 52610  53.2167 246.9497 0002138  91.6700 268.4537 15.08859452 79231,6917.821,95.436,541.165,538.207,0.0
52610.0,STARLINK-3998,PAYLOAD,2023-10-18 02:42:05,15.08846254,0.0001539,53.2165,245.7602,90.5156,269.6013,0.00065898,0.00010217,0.0,0 STARLINK-3998,1 52610U 22052N   23291.11256721  .00010217  00000-0  65898-3 0  9997,2 52610  53.2165 245.7602 0001539  90.5156 269.6013 15.08846254 79273,6917.861,95.437,540.791,538.662,0.0
52610.0,STARLINK-3998,PAYLOAD,2023-10-18 13:49:47,15.08851345,0.0001256,53.2149,243.6789,72.6389,287.4741,0.00044412,6.789e-05,0.0,0 STARLINK-3998,1 52610U 22052N   23291.57624427  .00006789  00000-0  44412-3 0  9997,2 52610  53.2149 243.6789 0001256  72.6389 287.4741 15.08851345 78972,6917.846,95.437,540.58,538.842,0.0
52610.0,STARLINK-3998,PAYLOAD,2023-10-19 04:08:15,15.08849483,0.000169,53.2166,241.0039,80.6505,279.4678,0.00045662,6.988e-05,0.0,0 STARLINK-3998,1 52610U 22052N   23292.17240545  .00006988  00000-0  45662-3 0  9998,2 52610  53.2166 241.0039 0001690  80.6505 279.4678 15.08849483 79434,6917.851,95.437,540.886,538.547,0.0
52610.0,STARLINK-3998,PAYLOAD,2023-10-19 05:43:38,15.08855403,0.0001828,53.2178,240.7066,85.208,274.9121,0.00071653,0.00011139,0.0,0 STARLINK-3998,1 52610U 22052N   23292.23864469  .00011139  00000-0  71653-3 0  9995,2 52610  53.2178 240.7066 0001828  85.2080 274.9121 15.08855403 79077,6917.833,95.437,540.963,538.434,0.0
52610.0,STARLINK-3998,PAYLOAD,2023-10-20 02:23:39,15.08848688,0.0001889,53.2163,236.8398,106.7021,253.4178,0.00035255,5.329e-05,0.0,0 STARLINK-3998,1 52610U 22052N   23293.09976294  .00005329  00000-0  35255-3 0  9992,2 52610  53.2163 236.8398 0001889 106.7021 253.4178 15.08848688 79572,6917.854,95.437,541.026,538.412,0.0
52610.0,STARLINK-3998,PAYLOAD,2023-10-20 05:34:25,15.08854636,0.0001589,53.2155,236.246,94.8025,265.3148,0.00048034,7.368e-05,0.0,0 STARLINK-3998,1 52610U 22052N   23293.23224054  .00007368  00000-0  48034-3 0  9992,2 52610  53.2155 236.2460 0001589  94.8025 265.3148 15.08854636 79226,6917.836,95.437,540.8,538.601,0.0
52610.0,STARLINK-3998,PAYLOAD,2023-10-21 02:14:27,15.08831709,0.0001679,53.2164,232.3759,117.3885,242.7279,0.00012552,1.71e-05,0.0,0 STARLINK-3998,1 52610U 22052N   23294.09336894  .00001710  00000-0  12552-3 0  9994,2 52610  53.2164 232.3759 0001679 117.3885 242.7279 15.08831709 79724,6917.906,95.438,540.932,538.609,0.0
52610.0,STARLINK-3998,PAYLOAD,2023-10-21 13:22:09,15.08843161,0.0001273,53.216,230.3004,97.1009,263.0128,0.00039543,6.011e-05,0.0,0 STARLINK-3998,1 52610U 22052N   23294.55704997  .00006011  00000-0  39543-3 0  9996,2 52610  53.2160 230.3004 0001273  97.1009 263.0128 15.08843161 79425,6917.871,95.437,540.616,538.855,0.0
52610.0,STARLINK-3998,PAYLOAD,2023-10-21 19:43:41,15.08848675,0.0001329,53.217,229.1094,90.1916,269.9228,0.00057517,8.88e-05,0.0,0 STARLINK-3998,1 52610U 22052N   23294.82200543  .00008880  00000-0  57517-3 0  9991,2 52610  53.2170 229.1094 0001329  90.1916 269.9228 15.08848675 79468,6917.854,95.437,540.638,538.799,0.0
52610.0,STARLINK-3998,PAYLOAD,2023-10-22 02:05:13,15.08877997,0.0001131,53.2145,227.9207,88.2465,271.8657,0.0013414,0.00021147,0.0,0 STARLINK-3998,1 52610U 22052N   23295.08695991  .00021147  00000-0  13414-2 0  9993,2 52610  53.2145 227.9207 0001131  88.2465 271.8657 15.08877997 79872,6917.764,95.435,540.412,538.847,0.0
52610.0,STARLINK-3998,PAYLOAD,2023-10-22 05:15:59,15.08892056,0.0001331,53.215,227.3248,92.5357,267.5788,0.0016162,0.00025564,0.0,0 STARLINK-3998,1 52610U 22052N   23295.21943440  .00025564  00000-0  16162-2 0  9993,2 52610  53.2150 227.3248 0001331  92.5357 267.5788 15.08892056 79899,6917.721,95.434,540.507,538.666,0.0
52610.0,STARLINK-3998,PAYLOAD,2023-10-22 13:12:55,15.08839313,0.0003827,53.2163,225.8383,99.0895,261.053,-0.00026217,-4.46e-05,0.0,0 STARLINK-3998,1 52610U 22052N   23295.55064531 -.00004460  00000-0 -26217-3 0  9992,2 52610  53.2163 225.8383 0003827  99.0895 261.0530 15.08839313 79573,6917.882,95.438,542.395,537.1,0.0
52610.0,STARLINK-3998,PAYLOAD,2023-10-22 22:45:14,15.08827443,0.0001405,53.2148,224.0543,117.0701,243.0435,-0.00056985,-9.342e-05,0.0,0 STARLINK-3998,1 52610U 22052N   23295.94808384 -.00009342  00000-0 -56985-3 0  9996,2 52610  53.2148 224.0543 0001405 117.0701 243.0435 15.08827443 79634,6917.919,95.438,540.756,538.812,0.0
52610.0,STARLINK-3998,PAYLOAD,2023-10-23 01:56:01,15.08816973,0.0001539,53.2156,223.4597,116.0572,244.0579,0.0012586,0.00019787,0.0,0 STARLINK-3998,1 52610U 22052N   23296.08056968  .00019787  00000-0  12586-2 0  9995,2 52610  53.2156 223.4597 0001539 116.0572 244.0579 15.08816973 80029,6917.951,95.439,540.88,538.751,0.0
52610.0,STARLINK-3998,PAYLOAD,2023-10-23 22:36:02,15.08842488,0.0001591,53.2163,219.5942,119.6274,240.4877,0.0014266,0.00022491,0.0,0 STARLINK-3998,1 52610U 22052N   23296.94169838  .00022491  00000-0  14266-2 0  9994,2 52610  53.2163 219.5942 0001591 119.6274 240.4877 15.08842488 79785,6917.873,95.437,540.838,538.637,0.0
52610.0,STARLINK-3998,PAYLOAD,2023-10-24 01:46:48,15.08849517,0.000149,53.2161,219.0001,117.5442,242.5701,0.0015818,0.00024983,0.0,0 STARLINK-3998,1 52610U 22052N   23297.07417792  .00024983  00000-0  15818-2 0  9996,2 52610  53.2161 219.0001 0001490 117.5442 242.5701 15.08849517 80170,6917.851,95.437,540.747,538.686,0.0
52610.0,STARLINK-3998,PAYLOAD,2023-10-24 11:19:07,15.08851258,0.0001379,53.2158,217.2152,118.9989,241.1141,0.00084064,0.0001312,0.0,0 STARLINK-3998,1 52610U 22052N   23297.47161597  .00013120  00000-0  84064-3 0  9990,2 52610  53.2158 217.2152 0001379 118.9989 241.1141 15.08851258 79862,6917.846,95.437,540.665,538.757,0.0
52610.0,STARLINK-3998,PAYLOAD,2023-10-25 04:48:21,15.08849697,0.0001617,53.2167,213.9452,119.2308,240.8846,0.00046289,7.089e-05,0.0,0 STARLINK-3998,1 52610U 22052N   23298.20025347  .00007089  00000-0  46289-3 0  9998,2 52610  53.2167 213.9452 0001617 119.2308 240.8846 15.08849697 80349,6917.851,95.437,540.834,538.597,0.0
52610.0,STARLINK-3998,PAYLOAD,2023-10-26 03:03:45,15.08846147,0.0001624,53.2167,209.7804,108.8099,251.3069,0.00012911,1.768e-05,0.0,0 STARLINK-3998,1 52610U 22052N   23299.12761379  .00001768  00000-0  12911-3 0  9995,2 52610  53.2167 209.7804 0001624 108.8099 251.3069 15.08846147 80488,6917.862,95.437,540.85,538.603,0.0
52610.0,STARLINK-3998,PAYLOAD,2023-10-27 01:19:09,15.08853579,0.0001411,53.2162,205.618,93.2633,266.852,0.00026321,3.905e-05,0.0,0 STARLINK-3998,1 52610U 22052N   23300.05496859  .00003905  00000-0  26321-3 0  9993,2 52610  53.2162 205.6180 0001411  93.2633 266.8520 15.08853579 80255,6917.839,95.437,540.68,538.728,0.0
52610.0,STARLINK-3998,PAYLOAD,2023-10-27 17:13:00,15.08841719,0.0001459,53.2157,202.642,108.8303,251.2847,6.6453e-05,7.7e-06,0.0,0 STARLINK-3998,1 52610U 22052N   23300.71737260  .00000770  00000-0  66453-4 0  9998,2 52610  53.2157 202.6420 0001459 108.8303 251.2847 15.08841719 80727,6917.875,95.437,540.749,538.731,0.0
52610.0,STARLINK-3998,PAYLOAD,2023-10-27 21:59:10,15.08841347,0.0001391,53.2156,201.7484,109.8886,250.2256,4.5098e-05,4.3e-06,0.0,0 STARLINK-3998,1 52610U 22052N   23300.91609283  .00000430  00000-0  45098-4 0  9998,2 52610  53.2156 201.7484 0001391 109.8886 250.2256 15.08841347 80380,6917.876,95.437,540.704,538.779,0.0
52610.0,STARLINK-3998,PAYLOAD,2023-10-28 10:42:15,15.08836124,0.0001403,53.2162,199.3718,94.9772,265.1381,-3.6554e-06,-3.46e-06,0.0,0 STARLINK-3998,1 52610U 22052N   23301.44601708 -.00000346  00000-0 -36554-5 0  9997,2 52610  53.2162 199.3718 0001403  94.9772 265.1381 15.08836124 80832,6917.892,95.438,540.728,538.787,0.0
52610.0,STARLINK-3998,PAYLOAD,2023-10-28 21:49:57,15.08846663,0.0001228,53.2155,197.2936,92.7768,267.3364,5.2708e-05,5.51e-06,0.0,0 STARLINK-3998,1 52610U 22052N   23301.90969323  .00000551  00000-0  52708-4 0  9992,2 52610  53.2155 197.2936 0001228  92.7768 267.3364 15.08846663 80530,6917.86,95.437,540.575,538.876,0.0
52610.0,STARLINK-3998,PAYLOAD,2023-10-29 02:36:06,15.08854676,0.0001393,53.216,196.3978,100.5896,259.5253,0.00035547,5.376e-05,0.0,0 STARLINK-3998,1 52610U 22052N   23302.10840947  .00005376  00000-0  35547-3 0  9996,2 52610  53.2160 196.3978 0001393 100.5896 259.5253 15.08854676 80932,6917.836,95.437,540.664,538.737,0.0
